<?xml version="1.0" encoding="UTF-8"?>
<ndm xmlns:xsi="http://www.w3.org/2001/XMLSchema-instance" xsi:noNamespaceSchemaLocation="https://sanaregistry.org/r/ndmxml_unqualified/ndmxml-2.0.0-master-2.0.xsd">
<omm id="CCSDS_OMM_VERS" version="2.0">
<header><CREATION_DATE/><ORIGINATOR/></header><body><segment><metadata><OBJECT_NAME>ONEWEB-0371</OBJECT_NAME><OBJECT_ID>2021-090U</OBJECT_ID><CENTER_NAME>EARTH</CENTER_NAME><REF_FRAME>TEME</REF_FRAME><TIME_SYSTEM>UTC</TIME_SYSTEM><MEAN_ELEMENT_THEORY>SGP4</MEAN_ELEMENT_THEORY></metadata><data><meanElements><EPOCH>2024-11-10T13:15:09.422496</EPOCH><MEAN_MOTION>13.19724846</MEAN_MOTION><ECCENTRICITY>.0001647</ECCENTRICITY><INCLINATION>87.9182</INCLINATION><RA_OF_ASC_NODE>61.0188</RA_OF_ASC_NODE><ARG_OF_PERICENTER>97.5343</ARG_OF_PERICENTER><MEAN_ANOMALY>262.5977</MEAN_ANOMALY></meanElements><tleParameters><EPHEMERIS_TYPE>0</EPHEMERIS_TYPE><CLASSIFICATION_TYPE>U</CLASSIFICATION_TYPE><NORAD_CAT_ID>49297</NORAD_CAT_ID><ELEMENT_SET_NO>999</ELEMENT_SET_NO><REV_AT_EPOCH>14947</REV_AT_EPOCH><BSTAR>.39969E-3</BSTAR><MEAN_MOTION_DOT>.173E-5</MEAN_MOTION_DOT><MEAN_MOTION_DDOT>0</MEAN_MOTION_DDOT></tleParameters></data></segment></body></omm>
<omm id="CCSDS_OMM_VERS" version="2.0">
<header><CREATION_DATE/><ORIGINATOR/></header><body><segment><metadata><OBJECT_NAME>ONEWEB-0372</OBJECT_NAME><OBJECT_ID>2021-090V</OBJECT_ID><CENTER_NAME>EARTH</CENTER_NAME><REF_FRAME>TEME</REF_FRAME><TIME_SYSTEM>UTC</TIME_SYSTEM><MEAN_ELEMENT_THEORY>SGP4</MEAN_ELEMENT_THEORY></metadata><data><meanElements><EPOCH>2024-11-10T10:55:34.603968</EPOCH><MEAN_MOTION>13.20768781</MEAN_MOTION><ECCENTRICITY>.0001933</ECCENTRICITY><INCLINATION>87.9294</INCLINATION><RA_OF_ASC_NODE>30.5738</RA_OF_ASC_NODE><ARG_OF_PERICENTER>98.5682</ARG_OF_PERICENTER><MEAN_ANOMALY>261.5671</MEAN_ANOMALY></meanElements><tleParameters><EPHEMERIS_TYPE>0</EPHEMERIS_TYPE><CLASSIFICATION_TYPE>U</CLASSIFICATION_TYPE><NORAD_CAT_ID>49298</NORAD_CAT_ID><ELEMENT_SET_NO>999</ELEMENT_SET_NO><REV_AT_EPOCH>15278</REV_AT_EPOCH><BSTAR>.18929E-3</BSTAR><MEAN_MOTION_DOT>.9E-6</MEAN_MOTION_DOT><MEAN_MOTION_DDOT>0</MEAN_MOTION_DDOT></tleParameters></data></segment></body></omm>
<omm id="CCSDS_OMM_VERS" version="2.0">
<header><CREATION_DATE/><ORIGINATOR/></header><body><segment><metadata><OBJECT_NAME>ONEWEB-0373</OBJECT_NAME><OBJECT_ID>2021-090W</OBJECT_ID><CENTER_NAME>EARTH</CENTER_NAME><REF_FRAME>TEME</REF_FRAME><TIME_SYSTEM>UTC</TIME_SYSTEM><MEAN_ELEMENT_THEORY>SGP4</MEAN_ELEMENT_THEORY></metadata><data><meanElements><EPOCH>2024-11-10T11:34:25.304448</EPOCH><MEAN_MOTION>13.20770868</MEAN_MOTION><ECCENTRICITY>.0002002</ECCENTRICITY><INCLINATION>87.9291</INCLINATION><RA_OF_ASC_NODE>30.5825</RA_OF_ASC_NODE><ARG_OF_PERICENTER>108.6992</ARG_OF_PERICENTER><MEAN_ANOMALY>251.4359</MEAN_ANOMALY></meanElements><tleParameters><EPHEMERIS_TYPE>0</EPHEMERIS_TYPE><CLASSIFICATION_TYPE>U</CLASSIFICATION_TYPE><NORAD_CAT_ID>49299</NORAD_CAT_ID><ELEMENT_SET_NO>999</ELEMENT_SET_NO><REV_AT_EPOCH>15397</REV_AT_EPOCH><BSTAR>.32154E-3</BSTAR><MEAN_MOTION_DOT>.144E-5</MEAN_MOTION_DOT><MEAN_MOTION_DDOT>0</MEAN_MOTION_DDOT></tleParameters></data></segment></body></omm>
<omm id="CCSDS_OMM_VERS" version="2.0">
<header><CREATION_DATE/><ORIGINATOR/></header><body><segment><metadata><OBJECT_NAME>ONEWEB-0374</OBJECT_NAME><OBJECT_ID>2021-090X</OBJECT_ID><CENTER_NAME>EARTH</CENTER_NAME><REF_FRAME>TEME</REF_FRAME><TIME_SYSTEM>UTC</TIME_SYSTEM><MEAN_ELEMENT_THEORY>SGP4</MEAN_ELEMENT_THEORY></metadata><data><meanElements><EPOCH>2024-11-10T12:34:05.366208</EPOCH><MEAN_MOTION>13.14503807</MEAN_MOTION><ECCENTRICITY>.0001881</ECCENTRICITY><INCLINATION>87.9029</INCLINATION><RA_OF_ASC_NODE>45.7637</RA_OF_ASC_NODE><ARG_OF_PERICENTER>103.0532</ARG_OF_PERICENTER><MEAN_ANOMALY>257.0808</MEAN_ANOMALY></meanElements><tleParameters><EPHEMERIS_TYPE>0</EPHEMERIS_TYPE><CLASSIFICATION_TYPE>U</CLASSIFICATION_TYPE><NORAD_CAT_ID>49300</NORAD_CAT_ID><ELEMENT_SET_NO>999</ELEMENT_SET_NO><REV_AT_EPOCH>15088</REV_AT_EPOCH><BSTAR>-.89829E-3</BSTAR><MEAN_MOTION_DOT>-.32E-5</MEAN_MOTION_DOT><MEAN_MOTION_DDOT>0</MEAN_MOTION_DDOT></tleParameters></data></segment></body></omm>
<omm id="CCSDS_OMM_VERS" version="2.0">
<header><CREATION_DATE/><ORIGINATOR/></header><body><segment><metadata><OBJECT_NAME>ONEWEB-0375</OBJECT_NAME><OBJECT_ID>2021-090Y</OBJECT_ID><CENTER_NAME>EARTH</CENTER_NAME><REF_FRAME>TEME</REF_FRAME><TIME_SYSTEM>UTC</TIME_SYSTEM><MEAN_ELEMENT_THEORY>SGP4</MEAN_ELEMENT_THEORY></metadata><data><meanElements><EPOCH>2024-11-10T11:16:14.606400</EPOCH><MEAN_MOTION>13.20771566</MEAN_MOTION><ECCENTRICITY>.0002073</ECCENTRICITY><INCLINATION>87.9287</INCLINATION><RA_OF_ASC_NODE>30.5615</RA_OF_ASC_NODE><ARG_OF_PERICENTER>121.8777</ARG_OF_PERICENTER><MEAN_ANOMALY>238.2558</MEAN_ANOMALY></meanElements><tleParameters><EPHEMERIS_TYPE>0</EPHEMERIS_TYPE><CLASSIFICATION_TYPE>U</CLASSIFICATION_TYPE><NORAD_CAT_ID>49301</NORAD_CAT_ID><ELEMENT_SET_NO>999</ELEMENT_SET_NO><REV_AT_EPOCH>15347</REV_AT_EPOCH><BSTAR>.33459E-3</BSTAR><MEAN_MOTION_DOT>.149E-5</MEAN_MOTION_DOT><MEAN_MOTION_DDOT>0</MEAN_MOTION_DDOT></tleParameters></data></segment></body></omm>
<omm id="CCSDS_OMM_VERS" version="2.0">
<header><CREATION_DATE/><ORIGINATOR/></header><body><segment><metadata><OBJECT_NAME>ONEWEB-0376</OBJECT_NAME><OBJECT_ID>2021-090Z</OBJECT_ID><CENTER_NAME>EARTH</CENTER_NAME><REF_FRAME>TEME</REF_FRAME><TIME_SYSTEM>UTC</TIME_SYSTEM><MEAN_ELEMENT_THEORY>SGP4</MEAN_ELEMENT_THEORY></metadata><data><meanElements><EPOCH>2024-11-10T13:12:51.861600</EPOCH><MEAN_MOTION>13.19725243</MEAN_MOTION><ECCENTRICITY>.0001832</ECCENTRICITY><INCLINATION>87.9173</INCLINATION><RA_OF_ASC_NODE>61.0181</RA_OF_ASC_NODE><ARG_OF_PERICENTER>93.0118</ARG_OF_PERICENTER><MEAN_ANOMALY>267.1225</MEAN_ANOMALY></meanElements><tleParameters><EPHEMERIS_TYPE>0</EPHEMERIS_TYPE><CLASSIFICATION_TYPE>U</CLASSIFICATION_TYPE><NORAD_CAT_ID>49302</NORAD_CAT_ID><ELEMENT_SET_NO>999</ELEMENT_SET_NO><REV_AT_EPOCH>14947</REV_AT_EPOCH><BSTAR>.43442E-3</BSTAR><MEAN_MOTION_DOT>.187E-5</MEAN_MOTION_DOT><MEAN_MOTION_DDOT>0</MEAN_MOTION_DDOT></tleParameters></data></segment></body></omm>
<omm id="CCSDS_OMM_VERS" version="2.0">
<header><CREATION_DATE/><ORIGINATOR/></header><body><segment><metadata><OBJECT_NAME>ONEWEB-0377</OBJECT_NAME><OBJECT_ID>2021-090AA</OBJECT_ID><CENTER_NAME>EARTH</CENTER_NAME><REF_FRAME>TEME</REF_FRAME><TIME_SYSTEM>UTC</TIME_SYSTEM><MEAN_ELEMENT_THEORY>SGP4</MEAN_ELEMENT_THEORY></metadata><data><meanElements><EPOCH>2024-11-10T10:55:58.040832</EPOCH><MEAN_MOTION>13.20768960</MEAN_MOTION><ECCENTRICITY>.0001599</ECCENTRICITY><INCLINATION>87.9295</INCLINATION><RA_OF_ASC_NODE>30.5569</RA_OF_ASC_NODE><ARG_OF_PERICENTER>105.9746</ARG_OF_PERICENTER><MEAN_ANOMALY>254.1564</MEAN_ANOMALY></meanElements><tleParameters><EPHEMERIS_TYPE>0</EPHEMERIS_TYPE><CLASSIFICATION_TYPE>U</CLASSIFICATION_TYPE><NORAD_CAT_ID>49303</NORAD_CAT_ID><ELEMENT_SET_NO>999</ELEMENT_SET_NO><REV_AT_EPOCH>15346</REV_AT_EPOCH><BSTAR>.28476E-3</BSTAR><MEAN_MOTION_DOT>.129E-5</MEAN_MOTION_DOT><MEAN_MOTION_DDOT>0</MEAN_MOTION_DDOT></tleParameters></data></segment></body></omm>
<omm id="CCSDS_OMM_VERS" version="2.0">
<header><CREATION_DATE/><ORIGINATOR/></header><body><segment><metadata><OBJECT_NAME>ONEWEB-0378</OBJECT_NAME><OBJECT_ID>2021-090AB</OBJECT_ID><CENTER_NAME>EARTH</CENTER_NAME><REF_FRAME>TEME</REF_FRAME><TIME_SYSTEM>UTC</TIME_SYSTEM><MEAN_ELEMENT_THEORY>SGP4</MEAN_ELEMENT_THEORY></metadata><data><meanElements><EPOCH>2024-11-10T11:27:47.594016</EPOCH><MEAN_MOTION>13.20770022</MEAN_MOTION><ECCENTRICITY>.0001885</ECCENTRICITY><INCLINATION>87.9293</INCLINATION><RA_OF_ASC_NODE>30.5571</RA_OF_ASC_NODE><ARG_OF_PERICENTER>105.3425</ARG_OF_PERICENTER><MEAN_ANOMALY>254.7917</MEAN_ANOMALY></meanElements><tleParameters><EPHEMERIS_TYPE>0</EPHEMERIS_TYPE><CLASSIFICATION_TYPE>U</CLASSIFICATION_TYPE><NORAD_CAT_ID>49304</NORAD_CAT_ID><ELEMENT_SET_NO>999</ELEMENT_SET_NO><REV_AT_EPOCH>15273</REV_AT_EPOCH><BSTAR>.4242E-3</BSTAR><MEAN_MOTION_DOT>.185E-5</MEAN_MOTION_DOT><MEAN_MOTION_DDOT>0</MEAN_MOTION_DDOT></tleParameters></data></segment></body></omm>

</ndm>
