ONEWEB-0371             
1 49297U 21090U   24315.55219239  .00000173  00000+0  39969-3 0  9993
2 49297  87.9182  61.0188 0001647  97.5343 262.5977 13.19724846149479
ONEWEB-0372             
1 49298U 21090V   24315.45526162  .00000090  00000+0  18929-3 0  9990
2 49298  87.9294  30.5738 0001933  98.5682 261.5671 13.20768781152787
ONEWEB-0373             
1 49299U 21090W   24315.48223732  .00000144  00000+0  32154-3 0  9997
2 49299  87.9291  30.5825 0002002 108.6992 251.4359 13.20770868153979
ONEWEB-0374             
1 49300U 21090X   24315.52367322 -.00000320  00000+0 -89829-3 0  9998
2 49300  87.9029  45.7637 0001881 103.0532 257.0808 13.14503807150881
ONEWEB-0375             
1 49301U 21090Y   24315.46961350  .00000149  00000+0  33459-3 0  9998
2 49301  87.9287  30.5615 0002073 121.8777 238.2558 13.20771566153476
ONEWEB-0376             
1 49302U 21090Z   24315.55060025  .00000187  00000+0  43442-3 0  9993
2 49302  87.9173  61.0181 0001832  93.0118 267.1225 13.19725243149475
ONEWEB-0377             
1 49303U 21090AA  24315.45553288  .00000129  00000+0  28476-3 0  9997
2 49303  87.9295  30.5569 0001599 105.9746 254.1564 13.20768960153463
ONEWEB-0378             
1 49304U 21090AB  24315.47763419  .00000185  00000+0  42420-3 0  9996
2 49304  87.9293  30.5571 0001885 105.3425 254.7917 13.20770022152730
